{
    "links": {
        "self": "http://www.neowsapp.com/rest/v1/neo/3785771?api_key=iIulBulltgU6a56xZRHN4H3l9WmuAYTsLGpBGhQ2"
    },
    "id": "3785771",
    "neo_reference_id": "3785771",
    "name": "(2017 TR4)",
    "designation": "2017 TR4",
    "nasa_jpl_url": "http://ssd.jpl.nasa.gov/sbdb.cgi?sstr=3785771",
    "absolute_magnitude_h": 25.9,
    "estimated_diameter": {
        "kilometers": {
            "estimated_diameter_min": 0.0175612318,
            "estimated_diameter_max": 0.0392681082
        },
        "meters": {
            "estimated_diameter_min": 17.561231848,
            "estimated_diameter_max": 39.2681081809
        },
        "miles": {
            "estimated_diameter_min": 0.0109120402,
            "estimated_diameter_max": 0.0244000636
        },
        "feet": {
            "estimated_diameter_min": 57.6155918963,
            "estimated_diameter_max": 128.8323800441
        }
    },
    "is_potentially_hazardous_asteroid": false,
    "close_approach_data": [
        {
            "close_approach_date": "2014-10-20",
            "close_approach_date_full": "2014-Oct-20 10:35",
            "epoch_date_close_approach": 1413801300000,
            "relative_velocity": {
                "kilometers_per_second": "14.7557172431",
                "kilometers_per_hour": "53120.5820751899",
                "miles_per_hour": "33007.063901109"
            },
            "miss_distance": {
                "astronomical": "0.3784149823",
                "lunar": "147.2034281147",
                "kilometers": "56610075.328167701",
                "miles": "35175869.6821722338"
            },
            "orbiting_body": "Earth"
        },
        {
            "close_approach_date": "2017-09-26",
            "close_approach_date_full": "2017-Sep-26 06:19",
            "epoch_date_close_approach": 1506406740000,
            "relative_velocity": {
                "kilometers_per_second": "5.6556606266",
                "kilometers_per_hour": "20360.3782557729",
                "miles_per_hour": "12651.1472556496"
            },
            "miss_distance": {
                "astronomical": "0.0343639793",
                "lunar": "13.3675879477",
                "kilometers": "5140778.108004091",
                "miles": "3194331.3931988158"
            },
            "orbiting_body": "Earth"
        },
        {
            "close_approach_date": "2020-07-24",
            "close_approach_date_full": "2020-Jul-24 22:29",
            "epoch_date_close_approach": 1595629740000,
            "relative_velocity": {
                "kilometers_per_second": "10.938675651",
                "kilometers_per_hour": "39379.2323437573",
                "miles_per_hour": "24468.7235638197"
            },
            "miss_distance": {
                "astronomical": "0.3036530197",
                "lunar": "118.1210246633",
                "kilometers": "45425844.966188039",
                "miles": "28226311.1905473782"
            },
            "orbiting_body": "Earth"
        },
        {
            "close_approach_date": "2067-10-19",
            "close_approach_date_full": "2067-Oct-19 08:54",
            "epoch_date_close_approach": 3086240040000,
            "relative_velocity": {
                "kilometers_per_second": "13.7256614214",
                "kilometers_per_hour": "49412.3811169777",
                "miles_per_hour": "30702.932033491"
            },
            "miss_distance": {
                "astronomical": "0.3418434516",
                "lunar": "132.9771026724",
                "kilometers": "51139052.232808092",
                "miles": "31776333.5692999896"
            },
            "orbiting_body": "Earth"
        },
        {
            "close_approach_date": "2120-07-31",
            "close_approach_date_full": "2120-Jul-31 09:10",
            "epoch_date_close_approach": 4751860200000,
            "relative_velocity": {
                "kilometers_per_second": "9.9822197723",
                "kilometers_per_hour": "35935.9911802442",
                "miles_per_hour": "22329.2274086356"
            },
            "miss_distance": {
                "astronomical": "0.2740234042",
                "lunar": "106.5951042338",
                "kilometers": "40993317.598469054",
                "miles": "25472066.4002747852"
            },
            "orbiting_body": "Earth"
        }
    ],
    "orbital_data": {
        "orbit_id": "4",
        "orbit_determination_date": "2017-12-29 06:22:07",
        "first_observation_date": "2017-10-12",
        "last_observation_date": "2017-10-19",
        "data_arc_in_days": 7,
        "observations_used": 30,
        "orbit_uncertainty": "8",
        "minimum_orbit_intersection": ".0332513",
        "jupiter_tisserand_invariant": "4.985",
        "epoch_osculation": "2458039.5",
        "eccentricity": ".209611688321869",
        "semi_major_axis": "1.294621971261423",
        "inclination": "8.246504536873397",
        "ascending_node_longitude": "7.927427578086184",
        "orbital_period": "538.037922028386",
        "perihelion_distance": "1.02325407412673",
        "perihelion_argument": "335.6781365642088",
        "aphelion_distance": "1.565989868396116",
        "perihelion_time": "2458004.530440771648",
        "mean_anomaly": "23.39805580013102",
        "mean_motion": ".6690978186868527",
        "equinox": "J2000",
        "orbit_class": {
            "orbit_class_type": "AMO",
            "orbit_class_description": "Near-Earth asteroid orbits similar to that of 1221 Amor",
            "orbit_class_range": "1.017 AU < q (perihelion) < 1.3 AU"
        }
    },
    "is_sentry_object": false
}